0 DMSP 5D-2 F11 DEB
1 28312U 91082Z   13283.23396339  .00000671  00000-0  34551-3 0  2067
2 28312 098.7921 270.2165 0013034 133.5451 349.3752 14.18508239489094
0 DMSP 5D-2 F11 DEB
1 28312U 91082Z   13285.90188208  .00000686  00000-0  35265-3 0  2077
2 28312 098.7921 272.8607 0013141 126.4095 292.9469 14.18511950489471
0 DMSP 5D-2 F11 DEB
1 28312U 91082Z   13288.45958598  .00000976  00000-0  49298-3 0  2081
2 28312 098.7924 275.3954 0013197 119.7116 033.6074 14.18517027489830
0 DMSP 5D-2 F11 DEB
1 28312U 91082Z   13290.91063667  .00000837  00000-0  42563-3 0  2094
2 28312 098.7929 277.8244 0013221 113.2951 309.6989 14.18521493490181
0 DMSP 5D-2 F11 DEB
1 28312U 91082Z   13292.94902955  .00000958  00000-0  48400-3 0  2103
2 28312 098.7933 279.8445 0013263 107.8996 278.6796 14.18524612490474
0 DMSP 5D-2 F11 DEB
1 28312U 91082Z   13295.44244382  .00000965  00000-0  48738-3 0  2117
2 28312 098.7934 282.3160 0013338 101.3378 051.2001 14.18530548490822
